NORAD_CAT_ID,OBJECT_NAME,OBJECT_TYPE,EPOCH,MEAN_MOTION,ECCENTRICITY,INCLINATION,RA_OF_ASC_NODE,ARG_OF_PERICENTER,MEAN_ANOMALY,BSTAR,MEAN_MOTION_DOT,MEAN_MOTION_DDOT,TLE_LINE0,TLE_LINE1,TLE_LINE2,SEMIMAJOR_AXIS,PERIOD,APOGEE,PERIGEE,DECAYED
52664.0,STARLINK-4070,PAYLOAD,2024-08-12 10:40:47,15.08863184,0.0001362,53.2154,212.0014,93.9899,266.1249,0.00039949,6.08e-05,0.0,0 STARLINK-4070,1 52664U 22053J   24225.44499163  .00006080  00000-0  39949-3 0  9991,2 52664  53.2154 212.0014 0001362  93.9899 266.1249 15.08863184124353,6917.81,95.436,540.617,538.732,0.0
52664.0,STARLINK-4070,PAYLOAD,2024-08-12 23:23:52,15.0885087,0.0001384,53.2159,209.6228,97.9672,262.1477,8.5415e-05,1.072e-05,0.0,0 STARLINK-4070,1 52664U 22053J   24225.97491530  .00001072  00000-0  85415-4 0  9995,2 52664  53.2159 209.6228 0001384  97.9672 262.1477 15.08850870124430,6917.847,95.437,540.67,538.755,0.0
52664.0,STARLINK-4070,PAYLOAD,2024-08-13 05:45:25,15.08850797,0.0001422,53.2152,208.4344,94.9274,265.188,7.8736e-05,9.66e-06,0.0,0 STARLINK-4070,1 52664U 22053J   24226.23987324  .00000966  00000-0  78736-4 0  9995,2 52664  53.2152 208.4344 0001422  94.9274 265.1880 15.08850797124470,6917.847,95.437,540.696,538.729,0.0
52664.0,STARLINK-4070,PAYLOAD,2024-08-13 15:17:44,15.08838102,0.0001449,53.2157,206.6503,96.6184,263.4973,-5.9479e-05,-1.234e-05,0.0,0 STARLINK-4070,1 52664U 22053J   24226.63731810 -.00001234  00000-0 -59479-4 0  9990,2 52664  53.2157 206.6503 0001449  96.6184 263.4973 15.08838102124537,6917.886,95.438,540.754,538.749,0.0
52664.0,STARLINK-4070,PAYLOAD,2024-08-13 23:14:40,15.08828714,0.0001641,53.2168,205.1717,91.6817,268.4363,-0.00020844,-3.603e-05,0.0,0 STARLINK-4070,1 52664U 22053J   24226.96852485 -.00003603  00000-0 -20844-3 0  9993,2 52664  53.2168 205.1717 0001641  91.6817 268.4363 15.08828714124583,6917.915,95.438,540.915,538.645,0.0
52664.0,STARLINK-4070,PAYLOAD,2024-08-14 05:36:13,15.08820502,0.0001369,53.2157,203.9762,87.9352,272.1797,-0.00030102,-5.073e-05,0.0,0 STARLINK-4070,1 52664U 22053J   24227.23348894 -.00005073  00000-0 -30102-3 0  9999,2 52664  53.2157 203.9762 0001369  87.9352 272.1797 15.08820502124621,6917.94,95.439,540.752,538.858,0.0
52664.0,STARLINK-4070,PAYLOAD,2024-08-14 08:46:59,15.08820929,0.0001342,53.2161,203.3812,92.0832,268.0314,-0.00022091,-3.8e-05,0.0,0 STARLINK-4070,1 52664U 22053J   24227.36597062 -.00003800  00000-0 -22091-3 0  9990,2 52664  53.2161 203.3812 0001342  92.0832 268.0314 15.08820929124641,6917.939,95.439,540.732,538.875,0.0
52664.0,STARLINK-4070,PAYLOAD,2024-08-14 15:08:32,15.08819744,0.0001343,53.216,202.1918,91.1064,269.0082,-8.0359e-05,-1.566e-05,0.0,0 STARLINK-4070,1 52664U 22053J   24227.63093434 -.00001566  00000-0 -80359-4 0  9993,2 52664  53.2160 202.1918 0001343  91.1064 269.0082 15.08819744124682,6917.942,95.439,540.736,538.878,0.0
52664.0,STARLINK-4070,PAYLOAD,2024-08-15 05:27:01,15.08831468,0.0001124,53.2147,199.5149,94.7716,265.3404,0.00035065,5.296e-05,0.0,0 STARLINK-4070,1 52664U 22053J   24228.22709866  .00005296  00000-0  35065-3 0  9997,2 52664  53.2147 199.5149 0001124  94.7716 265.3404 15.08831468124776,6917.906,95.438,540.549,538.994,0.0
52664.0,STARLINK-4070,PAYLOAD,2024-08-15 14:59:20,15.08841202,0.0001133,53.2148,197.7308,93.4477,266.6645,0.00061733,9.551e-05,0.0,0 STARLINK-4070,1 52664U 22053J   24228.62453999  .00009551  00000-0  61733-3 0  9993,2 52664  53.2148 197.7308 0001133  93.4477 266.6645 15.08841202124839,6917.877,95.437,540.526,538.958,0.0
52664.0,STARLINK-4070,PAYLOAD,2024-08-16 03:42:24,15.0886091,0.0001099,53.2141,195.3516,95.3013,264.8105,0.00084939,0.00013264,0.0,0 STARLINK-4070,1 52664U 22053J   24229.15445426  .00013264  00000-0  84939-3 0  9997,2 52664  53.2141 195.3516 0001099  95.3013 264.8105 15.08860910124912,6917.816,95.436,540.442,538.921,0.0
52664.0,STARLINK-4070,PAYLOAD,2024-08-16 05:17:47,15.0886271,0.0001093,53.214,195.0542,95.9579,264.1537,0.00086888,0.00013576,0.0,0 STARLINK-4070,1 52664U 22053J   24229.22069335  .00013576  00000-0  86888-3 0  9997,2 52664  53.2140 195.0542 0001093  95.9579 264.1537 15.08862710124927,6917.811,95.436,540.432,538.92,0.0
52664.0,STARLINK-4070,PAYLOAD,2024-08-17 03:33:11,15.08845178,0.000122,53.2138,190.8901,130.5598,229.5501,0.00021089,3.071e-05,0.0,0 STARLINK-4070,1 52664U 22053J   24230.14805295  .00003071  00000-0  21089-3 0  9994,2 52664  53.2138 190.8901 0001220 130.5598 229.5501 15.08845178125066,6917.865,95.437,540.574,538.886,0.0
52664.0,STARLINK-4070,PAYLOAD,2024-08-17 05:08:35,15.08835316,0.0001229,53.2134,190.592,131.0678,229.0421,-8.6034e-05,-1.657e-05,0.0,0 STARLINK-4070,1 52664U 22053J   24230.21429438 -.00001657  00000-0 -86034-4 0  9995,2 52664  53.2134 190.5920 0001229 131.0678 229.0421 15.08835316125074,6917.895,95.438,540.61,538.909,0.0
52664.0,STARLINK-4070,PAYLOAD,2024-08-17 21:02:26,15.0883612,0.00011,53.2146,187.6177,102.6366,257.4749,5.4467e-05,5.79e-06,0.0,0 STARLINK-4070,1 52664U 22053J   24230.87670027  .00000579  00000-0  54467-4 0  9994,2 52664  53.2146 187.6177 0001100 102.6366 257.4749 15.08836120125177,6917.892,95.438,540.518,538.996,0.0
52664.0,STARLINK-4070,PAYLOAD,2024-08-18 03:23:59,15.08849301,0.0001333,53.2153,186.4315,82.8948,277.2196,0.00028827,4.304e-05,0.0,0 STARLINK-4070,1 52664U 22053J   24231.14165726  .00004304  00000-0  28827-3 0  9990,2 52664  53.2153 186.4315 0001333  82.8948 277.2196 15.08849301125215,6917.852,95.437,540.639,538.795,0.0
52664.0,STARLINK-4070,PAYLOAD,2024-08-18 06:34:45,15.0885396,0.00012,53.2144,185.8342,107.2951,252.8173,0.00052778,8.125e-05,0.0,0 STARLINK-4070,1 52664U 22053J   24231.27413527  .00008125  00000-0  52778-3 0  9996,2 52664  53.2144 185.8342 0001200 107.2951 252.8173 15.08853960125239,6917.838,95.437,540.533,538.873,0.0
52664.0,STARLINK-4070,PAYLOAD,2024-08-19 03:14:45,15.08855134,0.000138,53.215,181.9678,100.6503,259.4644,0.00045654,6.988e-05,0.0,0 STARLINK-4070,1 52664U 22053J   24232.13525318  .00006988  00000-0  45654-3 0  9994,2 52664  53.2150 181.9678 0001380 100.6503 259.4644 15.08855134125369,6917.834,95.437,540.654,538.744,0.0
52664.0,STARLINK-4070,PAYLOAD,2024-08-19 06:25:31,15.08858296,0.0001659,53.216,181.3726,110.5771,249.5399,0.00032949,4.962e-05,0.0,0 STARLINK-4070,1 52664U 22053J   24232.26773027  .00004962  00000-0  32949-3 0  9993,2 52664  53.2160 181.3726 0001659 110.5771 249.5399 15.08858296125385,6917.824,95.436,540.837,538.542,0.0
52664.0,STARLINK-4070,PAYLOAD,2024-08-20 03:05:32,15.08844678,0.0001377,53.2161,177.5071,96.3425,263.7724,2.3311e-05,8.3e-07,0.0,0 STARLINK-4070,1 52664U 22053J   24233.12885270  .00000083  00000-0  23311-4 0  9997,2 52664  53.2161 177.5071 0001377  96.3425 263.7724 15.08844678125514,6917.866,95.437,540.684,538.779,0.0
52664.0,STARLINK-4070,PAYLOAD,2024-08-20 06:16:19,15.08846713,0.0001409,53.2164,176.9127,98.6346,261.4806,4.8931e-05,4.91e-06,0.0,0 STARLINK-4070,1 52664U 22053J   24233.26133223  .00000491  00000-0  48931-4 0  9994,2 52664  53.2164 176.9127 0001409  98.6346 261.4806 15.08846713125535,6917.86,95.437,540.7,538.75,0.0
52664.0,STARLINK-4070,PAYLOAD,2024-08-21 02:56:19,15.08848496,0.0001331,53.2162,173.0466,95.1431,264.9713,8.8548e-05,1.122e-05,0.0,0 STARLINK-4070,1 52664U 22053J   24234.12244963  .00001122  00000-0  88548-4 0  9994,2 52664  53.2162 173.0466 0001331  95.1431 264.9713 15.08848496125667,6917.854,95.437,540.64,538.799,0.0
52664.0,STARLINK-4070,PAYLOAD,2024-08-21 18:50:11,15.08835768,0.000143,53.2168,170.0748,99.9607,260.1546,7.0055e-05,8.27e-06,0.0,0 STARLINK-4070,1 52664U 22053J   24234.78485680  .00000827  00000-0  70055-4 0  9994,2 52664  53.2168 170.0748 0001430  99.9607 260.1546 15.08835768125761,6917.893,95.438,540.748,538.769,0.0
52664.0,STARLINK-4070,PAYLOAD,2024-08-21 20:25:34,15.08836471,0.0001267,53.2159,169.7767,87.5052,272.6085,4.742e-05,4.67e-06,0.0,0 STARLINK-4070,1 52664U 22053J   24234.85109756  .00000467  00000-0  47420-4 0  9999,2 52664  53.2159 169.7767 0001267  87.5052 272.6085 15.08836471125771,6917.891,95.438,540.633,538.88,0.0
